*******************************************************************************
Ephemeris / WWW_USER Fri Mar  7 10:28:41 2025 Pasadena, USA      / Horizons    
*******************************************************************************
Target body name: (2018 RG5)                      {source: JPL#6}
Center body name: Earth (399)                     {source: DE441}
Center-site name: Mauna Kea
*******************************************************************************
Start time      : A.D. 2018-Aug-02 05:08:00.0000 UT      
Stop  time      : A.D. 2018-Aug-02 15:48:00.0000 UT      
Step-size       : 1 minutes
*******************************************************************************
Target pole/equ : undefined
Target radii    : undefined                                                    
Center geodetic : 204.5278, 19.8260847, 4.21024   {E-lon(deg),Lat(deg),Alt(km)}
Center cylindric: 204.5278, 6006.35451, 2151.0229 {E-lon(deg),Dxy(km),Dz(km)}
Center pole/equ : ITRF93                          {East-longitude positive}
Center radii    : 6378.137, 6378.137, 6356.752 km {Equator_a, b, pole_c}       
Target primary  : Sun
Vis. interferer : MOON (R_eq= 1737.400) km        {source: DE441}
Rel. light bend : Sun                             {source: DE441}
Rel. lght bnd GM: 1.3271E+11 km^3/s^2                                          
Small-body perts: Yes                             {source: SB441-N16}
Atmos refraction: NO (AIRLESS)
RA format       : HMS
Time format     : CAL 
Calendar mode   : Mixed Julian/Gregorian
RTS-only print  : NO       
EOP file        : eop.250306.p250602                                           
EOP coverage    : DATA-BASED 1962-JAN-20 TO 2025-MAR-06. PREDICTS-> 2025-JUN-01
Units conversion: 1 au= 149597870.700 km, c= 299792.458 km/s, 1 day= 86400.0 s 
Table cut-offs 1: Elevation (-90.0deg=NO ),Airmass (>38.000=NO), Daylight (YES)
Table cut-offs 2: Solar elongation (  0.0,180.0=NO ),Local Hour Angle( 0.0=NO )
Table cut-offs 3: RA/DEC angular rate (     0.0=NO )                           
*******************************************************************************
Initial IAU76/J2000 heliocentric ecliptic osculating elements (au, days, deg.):
  EPOCH=  2458374.5 ! 2018-Sep-13.00 (TDB)         Residual RMS= .44286        
   EC= .3970272763955992   QR= .9476094655819058   TP= 2458410.7007282218      
   OM= 172.9777515025259   W=  220.286388004559    IN= 6.065188755768435       
  Equivalent ICRF heliocentric cartesian coordinates (au, au/d):
   X= 1.011373795361920E+00  Y=-1.657289676662098E-01  Z=-6.569093016663846E-02
  VX=-6.707749535245534E-04 VY= 1.878070382659777E-02 VZ= 5.901532854039199E-03
Asteroid physical parameters (km, seconds, rotational period in hours):        
   GM= n.a.                RAD= n.a.               ROTPER= n.a.                
   H= 26.76                G= .150                 B-V= n.a.                   
                           ALBEDO= n.a.            STYP= n.a.                  
*******************************************************************************
 Date__(UT)__HR:MN     R.A._________(ICRF)_________DEC
******************************************************
$$SOE
 2018-Aug-02 07:11     21 25 56.616084 +05 59 57.46900
 2018-Aug-02 07:12     21 25 56.618697 +05 59 57.93639
 2018-Aug-02 07:13     21 25 56.621273 +05 59 58.40376
 2018-Aug-02 07:14     21 25 56.623812 +05 59 58.87108
 2018-Aug-02 07:15     21 25 56.626314 +05 59 59.33837
 2018-Aug-02 07:16     21 25 56.628780 +05 59 59.80561
 2018-Aug-02 07:17     21 25 56.631209 +06 00 00.27282
 2018-Aug-02 07:18     21 25 56.633602 +06 00 00.73999
 2018-Aug-02 07:19     21 25 56.635959 +06 00 01.20712
 2018-Aug-02 07:20     21 25 56.638279 +06 00 01.67421
 2018-Aug-02 07:21     21 25 56.640563 +06 00 02.14126
 2018-Aug-02 07:22     21 25 56.642812 +06 00 02.60827
 2018-Aug-02 07:23     21 25 56.645024 +06 00 03.07524
 2018-Aug-02 07:24     21 25 56.647201 +06 00 03.54217
 2018-Aug-02 07:25     21 25 56.649342 +06 00 04.00906
 2018-Aug-02 07:26     21 25 56.651447 +06 00 04.47591
 2018-Aug-02 07:27     21 25 56.653517 +06 00 04.94272
 2018-Aug-02 07:28     21 25 56.655551 +06 00 05.40948
 2018-Aug-02 07:29     21 25 56.657551 +06 00 05.87620
 2018-Aug-02 07:30     21 25 56.659515 +06 00 06.34289
 2018-Aug-02 07:31     21 25 56.661444 +06 00 06.80952
 2018-Aug-02 07:32     21 25 56.663338 +06 00 07.27612
 2018-Aug-02 07:33     21 25 56.665197 +06 00 07.74268
 2018-Aug-02 07:34     21 25 56.667022 +06 00 08.20919
 2018-Aug-02 07:35     21 25 56.668812 +06 00 08.67565
 2018-Aug-02 07:36     21 25 56.670568 +06 00 09.14208
 2018-Aug-02 07:37     21 25 56.672289 +06 00 09.60846
 2018-Aug-02 07:38     21 25 56.673976 +06 00 10.07479
 2018-Aug-02 07:39     21 25 56.675629 +06 00 10.54109
 2018-Aug-02 07:40     21 25 56.677247 +06 00 11.00733
 2018-Aug-02 07:41     21 25 56.678832 +06 00 11.47354
 2018-Aug-02 07:42     21 25 56.680383 +06 00 11.93970
 2018-Aug-02 07:43     21 25 56.681900 +06 00 12.40581
 2018-Aug-02 07:44     21 25 56.683384 +06 00 12.87188
 2018-Aug-02 07:45     21 25 56.684834 +06 00 13.33790
 2018-Aug-02 07:46     21 25 56.686251 +06 00 13.80387
 2018-Aug-02 07:47     21 25 56.687635 +06 00 14.26980
 2018-Aug-02 07:48     21 25 56.688985 +06 00 14.73569
 2018-Aug-02 07:49     21 25 56.690303 +06 00 15.20152
 2018-Aug-02 07:50     21 25 56.691588 +06 00 15.66731
 2018-Aug-02 07:51     21 25 56.692840 +06 00 16.13306
 2018-Aug-02 07:52     21 25 56.694059 +06 00 16.59875
 2018-Aug-02 07:53     21 25 56.695246 +06 00 17.06440
 2018-Aug-02 07:54     21 25 56.696401 +06 00 17.53000
 2018-Aug-02 07:55     21 25 56.697523 +06 00 17.99556
 2018-Aug-02 07:56     21 25 56.698613 +06 00 18.46106
 2018-Aug-02 07:57     21 25 56.699671 +06 00 18.92652
 2018-Aug-02 07:58     21 25 56.700697 +06 00 19.39192
 2018-Aug-02 07:59     21 25 56.701692 +06 00 19.85728
 2018-Aug-02 08:00     21 25 56.702655 +06 00 20.32259
 2018-Aug-02 08:01     21 25 56.703586 +06 00 20.78785
 2018-Aug-02 08:02     21 25 56.704486 +06 00 21.25306
 2018-Aug-02 08:03     21 25 56.705355 +06 00 21.71822
 2018-Aug-02 08:04     21 25 56.706193 +06 00 22.18333
 2018-Aug-02 08:05     21 25 56.706999 +06 00 22.64840
 2018-Aug-02 08:06     21 25 56.707775 +06 00 23.11341
 2018-Aug-02 08:07     21 25 56.708520 +06 00 23.57837
 2018-Aug-02 08:08     21 25 56.709235 +06 00 24.04328
 2018-Aug-02 08:09     21 25 56.709919 +06 00 24.50813
 2018-Aug-02 08:10     21 25 56.710572 +06 00 24.97294
 2018-Aug-02 08:11     21 25 56.711196 +06 00 25.43770
 2018-Aug-02 08:12     21 25 56.711789 +06 00 25.90240
 2018-Aug-02 08:13     21 25 56.712353 +06 00 26.36705
 2018-Aug-02 08:14     21 25 56.712887 +06 00 26.83165
 2018-Aug-02 08:15     21 25 56.713391 +06 00 27.29620
 2018-Aug-02 08:16     21 25 56.713865 +06 00 27.76069
 2018-Aug-02 08:17     21 25 56.714311 +06 00 28.22513
 2018-Aug-02 08:18     21 25 56.714726 +06 00 28.68952
 2018-Aug-02 08:19  m  21 25 56.715113 +06 00 29.15386
 2018-Aug-02 08:20  m  21 25 56.715471 +06 00 29.61814
 2018-Aug-02 08:21  m  21 25 56.715800 +06 00 30.08237
 2018-Aug-02 08:22  m  21 25 56.716101 +06 00 30.54655
 2018-Aug-02 08:23  m  21 25 56.716372 +06 00 31.01067
 2018-Aug-02 08:24  m  21 25 56.716616 +06 00 31.47473
 2018-Aug-02 08:25  m  21 25 56.716831 +06 00 31.93875
 2018-Aug-02 08:26  m  21 25 56.717018 +06 00 32.40271
 2018-Aug-02 08:27  m  21 25 56.717177 +06 00 32.86661
 2018-Aug-02 08:28  m  21 25 56.717308 +06 00 33.33046
 2018-Aug-02 08:29  m  21 25 56.717411 +06 00 33.79425
 2018-Aug-02 08:30  m  21 25 56.717487 +06 00 34.25799
 2018-Aug-02 08:31  m  21 25 56.717536 +06 00 34.72167
 2018-Aug-02 08:32  m  21 25 56.717557 +06 00 35.18530
 2018-Aug-02 08:33  m  21 25 56.717551 +06 00 35.64887
 2018-Aug-02 08:34  m  21 25 56.717518 +06 00 36.11238
 2018-Aug-02 08:35  m  21 25 56.717459 +06 00 36.57584
 2018-Aug-02 08:36  m  21 25 56.717372 +06 00 37.03924
 2018-Aug-02 08:37  m  21 25 56.717259 +06 00 37.50259
 2018-Aug-02 08:38  m  21 25 56.717120 +06 00 37.96587
 2018-Aug-02 08:39  m  21 25 56.716954 +06 00 38.42911
 2018-Aug-02 08:40  m  21 25 56.716763 +06 00 38.89228
 2018-Aug-02 08:41  m  21 25 56.716545 +06 00 39.35540
 2018-Aug-02 08:42  m  21 25 56.716302 +06 00 39.81845
 2018-Aug-02 08:43  m  21 25 56.716033 +06 00 40.28145
 2018-Aug-02 08:44  m  21 25 56.715738 +06 00 40.74440
 2018-Aug-02 08:45  m  21 25 56.715418 +06 00 41.20728
 2018-Aug-02 08:46  m  21 25 56.715073 +06 00 41.67011
 2018-Aug-02 08:47  m  21 25 56.714703 +06 00 42.13288
 2018-Aug-02 08:48  m  21 25 56.714308 +06 00 42.59558
 2018-Aug-02 08:49  m  21 25 56.713888 +06 00 43.05823
 2018-Aug-02 08:50  m  21 25 56.713444 +06 00 43.52083
 2018-Aug-02 08:51  m  21 25 56.712975 +06 00 43.98336
 2018-Aug-02 08:52  m  21 25 56.712482 +06 00 44.44583
 2018-Aug-02 08:53  m  21 25 56.711965 +06 00 44.90824
 2018-Aug-02 08:54  m  21 25 56.711424 +06 00 45.37059
 2018-Aug-02 08:55  m  21 25 56.710859 +06 00 45.83289
 2018-Aug-02 08:56  m  21 25 56.710271 +06 00 46.29512
 2018-Aug-02 08:57  m  21 25 56.709659 +06 00 46.75729
 2018-Aug-02 08:58  m  21 25 56.709024 +06 00 47.21940
 2018-Aug-02 08:59  m  21 25 56.708365 +06 00 47.68146
 2018-Aug-02 09:00  m  21 25 56.707684 +06 00 48.14345
 2018-Aug-02 09:01  m  21 25 56.706979 +06 00 48.60538
 2018-Aug-02 09:02  m  21 25 56.706252 +06 00 49.06725
 2018-Aug-02 09:03  m  21 25 56.705503 +06 00 49.52905
 2018-Aug-02 09:04  m  21 25 56.704731 +06 00 49.99080
 2018-Aug-02 09:05  m  21 25 56.703937 +06 00 50.45248
 2018-Aug-02 09:06  m  21 25 56.703120 +06 00 50.91411
 2018-Aug-02 09:07  m  21 25 56.702282 +06 00 51.37567
 2018-Aug-02 09:08  m  21 25 56.701422 +06 00 51.83716
 2018-Aug-02 09:09  m  21 25 56.700541 +06 00 52.29860
 2018-Aug-02 09:10  m  21 25 56.699638 +06 00 52.75997
 2018-Aug-02 09:11  m  21 25 56.698714 +06 00 53.22129
 2018-Aug-02 09:12  m  21 25 56.697769 +06 00 53.68253
 2018-Aug-02 09:13  m  21 25 56.696803 +06 00 54.14372
